[{"OBJECT_NAME":"STARLINK-3636","OBJECT_ID":"2022-025AR","EPOCH":"2026-03-09T06:41:11.659488","MEAN_MOTION":15.08837899,"ECCENTRICITY":0.00015199,"INCLINATION":53.2194,"RA_OF_ASC_NODE":20.9662,"ARG_OF_PERICENTER":91.0542,"MEAN_ANOMALY":269.0625,"EPHEMERIS_TYPE":0,"CLASSIFICATION_TYPE":"U","NORAD_CAT_ID":51995,"ELEMENT_SET_NO":999,"REV_AT_EPOCH":22084,"BSTAR":-2.7162514e-5,"MEAN_MOTION_DOT":-7.2e-6,"MEAN_MOTION_DDOT":0},{"OBJECT_NAME":"JILIN-01 KUANFU 02B 4","OBJECT_ID":"2024-169D","EPOCH":"2026-03-09T23:04:43.463424","MEAN_MOTION":15.0922271,"ECCENTRICITY":0.00080501,"INCLINATION":97.5522,"RA_OF_ASC_NODE":159.355,"ARG_OF_PERICENTER":260.1533,"MEAN_ANOMALY":99.8787,"EPHEMERIS_TYPE":0,"CLASSIFICATION_TYPE":"U","NORAD_CAT_ID":61192,"ELEMENT_SET_NO":999,"REV_AT_EPOCH":8086,"BSTAR":0.00035789888,"MEAN_MOTION_DOT":5.634e-5,"MEAN_MOTION_DDOT":0}]
